satname,norad_id,inclination_deg,eccentricity,mean_motion_rev_per_day,perigee_km,apogee_km,l1,l2
STARLINK-1564,46058,53.1616,0.0001277,15.30185609,474.38286014164805,476.1332172345283,1 46058U 20055AH  26152.93901871 -.00000671  00000+0 -10552-4 0  9991,2 46058  53.1616  83.0389 0001277  96.0510 264.0637 15.30185609321963
STARLINK-1570,46059,53.1588,0.0001203,15.31703883,469.9045017191038,471.5523387392104,1 46059U 20055AJ  26153.11378690  .00000458  00000+0  26525-4 0  9998,2 46059  53.1588  81.2206 0001203 103.7651 256.3485 15.31703883321967
STARLINK-1572,46060,53.1602,0.000138,15.30185618,474.31224330365876,476.2037803269195,1 46060U 20055AK  26153.11596611 -.00000646  00000+0 -96991-5 0  9991,2 46060  53.1602  81.9640 0001380  80.7385 279.3772 15.30185618321962
STARLINK-1573,46061,53.1601,0.0001377,15.31700074,469.79668430363927,471.68286496737346,1 46061U 20055AL  26153.09980378  .00000282  00000+0  20871-4 0  9993,2 46061  53.1601  81.2462 0001377  72.4631 287.6520 15.31700074322004
STARLINK-1577,46063,53.161,0.0001279,15.31716679,469.8143114370605,471.5662414543749,1 46063U 20055AN  26152.21424828  .00010101  00000+0  33666-3 0  9997,2 46063  53.1610  85.3698 0001279 108.3510 251.7631 15.31716679321864
STARLINK-1583,46064,53.1627,0.0001285,15.31705713,469.84288661734263,471.60304362837906,1 46064U 20055AP  26153.07656050  .00005040  00000+0  17402-3 0  9993,2 46064  53.1627  81.8592 0001285  90.0702 270.0447 15.31705713321983
STARLINK-1536,46070,53.1608,0.0001368,15.31699765,469.80376927973066,471.6776222172866,1 46070U 20055AV  26153.07785001  .00002749  00000+0  10032-3 0  9994,2 46070  53.1608  69.2434 0001368  82.0950 278.0206 15.31699765322163
STARLINK-1542,46073,53.1635,0.0001493,15.3172279,469.64953307117503,471.694587456569,1 46073U 20055AY  26153.03695863  .00006830  00000+0  23150-3 0  9999,2 46073  53.1635  72.3976 0001493  81.8033 278.3138 15.31722790322106
STARLINK-1549,46074,53.0495,0.0004961,15.28727062,476.21439607742286,483.01865912751146,1 46074U 20055AZ  26152.20216025  .00023388  00000+0  83593-3 0  9991,2 46074  53.0495  73.3956 0004961 110.3925 249.7607 15.28727062322005
STARLINK-1551,46075,53.1589,0.0001089,15.30214254,474.42618446937104,475.91883528062226,1 46075U 20055BA  26152.01555313  .00005228  00000+0  18843-3 0  9996,2 46075  53.1589  74.0228 0001089 102.4901 257.6222 15.30214254321990
STARLINK-1552,46076,53.1601,0.0001034,15.31716651,469.98219116173186,471.3985286597608,1 46076U 20055BB  26152.20655884  .00010619  00000+0  35328-3 0  9999,2 46076  53.1601  72.8132 0001034  78.0199 282.0919 15.31716651322011
STARLINK-1559,46077,53.0247,0.0002235,15.37570261,451.7699249262887,454.823575812703,1 46077U 20055BC  26151.97087342  .00055356  00000+0  14792-2 0  9999,2 46077  53.0247  43.8150 0002235  83.6696 276.4560 15.37570261322361
STARLINK-1566,46079,53.1608,0.0001352,15.31716172,469.76582610721834,471.6177494114272,1 46079U 20055BE  26152.14594625  .00008949  00000+0  29965-3 0  9993,2 46079  53.1608  72.9486 0001352 107.8889 252.2260 15.31716172322021
STARLINK-1568,46080,53.0598,0.0003408,15.53709043,403.59587766710047,408.2198826574195,1 46080U 20055BF  26153.79766413  .00047779  00000+0  73658-3 0  9995,2 46080  53.0598 344.6508 0003408  67.3837 292.7533 15.53709043323397
STARLINK-1578,46082,53.1606,0.0001382,15.31707686,469.7705721210268,471.6635953897767,1 46082U 20055BH  26152.21559112  .00000455  00000+0  26425-4 0  9990,2 46082  53.1606  73.1428 0001382  96.8905 263.2254 15.31707686322026
STARLINK-1579,46083,53.1609,8.78e-05,15.31721048,470.0759270599683,471.2785788427864,1 46083U 20055BJ  26152.20188266  .00011914  00000+0  39479-3 0  9992,2 46083  53.1609  72.7421 0000878  82.8095 277.3006 15.31721048322021
STARLINK-1622,46128,53.0155,0.0007265,15.82832964,317.565579058024,327.3015080578143,1 46128U 20057M   26154.00002315  .00197482  00000+0  89454-3 0  9997,2 46128  53.0155 160.4788 0007265  40.3467  49.9298 15.82832964  5914
STARLINK-1623,46129,53.0414,0.0006076,15.73636979,344.425503017379,352.59972762991947,1 46129U 20057N   26154.00002315  .00155950  00000+0  10737-2 0  9999,2 46129  53.0414 198.3219 0006076  15.4212  78.6249 15.73636979  5993
STARLINK-1596,46141,53.0337,0.0007042,15.58651782,386.7908614562866,396.3253000079894,1 46141U 20057AA  26154.00002315  .00138437  00000+0  17447-2 0  9999,2 46141  53.0337 180.2817 0007042  15.1109 206.7848 15.58651782  5880
STARLINK-1597,46142,53.0424,0.0004115,15.73471693,346.2154660891856,351.7518864057374,1 46142U 20057AB  26154.00002315  .00109667  00000+0  76628-3 0  9990,2 46142  53.0424 238.0611 0004115  19.4060 210.1381 15.73471693  5983
STARLINK-1606,46144,53.0355,0.0008343,15.88563129,300.7337551825949,311.88742443094634,1 46144U 20057AD  26154.00002315  .00323332  00000+0  10923-2 0  9994,2 46144  53.0355 191.6190 0008343   0.3382  56.3790 15.88563129  6018
STARLINK-1608,46146,53.1598,0.0003428,15.35350071,457.5368126855765,462.2249577476814,1 46146U 20057AF  26152.60429317  .00057236  00000+0  16417-2 0  9996,2 46146  53.1598 278.4501 0003428 322.9014  37.1751 15.35350071319040
STARLINK-1667,46155,53.0108,0.0007987,15.87874965,302.9013403855888,313.5821618025866,1 46155U 20057AQ  26154.00002315  .00314278  00000+0  11000-2 0  9992,2 46155  53.0108 159.8651 0007987  43.1230 334.5337 15.87874965  5967
STARLINK-1545,46156,53.0374,0.0006885,15.8144312,321.7427670815259,330.9748578152685,1 46156U 20057AR  26154.00002315  .00193315  00000+0  93496-3 0  9990,2 46156  53.0374 195.9363 0006885 347.2679 111.4487 15.81443120  6019
STARLINK-1595,46159,53.0415,0.0004482,15.71404804,351.8634908032127,357.89896834420233,1 46159U 20057AU  26154.00002315  .00034467  00000+0  26844-3 0  9998,2 46159  53.0415 240.7382 0004482   5.7669  81.1401 15.71404804  5983
STARLINK-1598,46160,53.044,6.84e-05,15.70995729,355.5893773195712,356.51061410058355,1 46160U 20057AV  26153.00005787  .00040132  00000+0  31708-3 0  9996,2 46160  53.0440 231.8413 0000684 202.6253 133.3572 15.70995729  5930
STARLINK-1626,46167,53.0409,0.0003233,15.71091108,353.600368964685,357.9545180438554,1 46167U 20057BC  26153.00005787  .00029654  00000+0  23484-3 0  9991,2 46167  53.0409 241.3467 0003233 357.1721  17.2690 15.71091108  5936
STARLINK-1633,46171,53.0335,0.000602,15.79135649,328.8483659833855,336.92844056893045,1 46171U 20057BG  26154.00002315  .00161310  00000+0  87112-3 0  9995,2 46171  53.0335 197.7502 0006020 331.2891 111.2666 15.79135649  5958
